IRIDIUM 155             
1 43573U 18061E   24316.96257342  .00000265  00000+0  87598-4 0  9995
2 43573  86.3922 299.9865 0002390  84.4652 275.6816 14.34219132329914
IRIDIUM 154             
1 43574U 18061F   24316.66447024  .00000681  00000+0  23627-3 0  9995
2 43574  86.3927 300.2161 0002233  91.4667 268.6785 14.34216674329910
IRIDIUM 163             
1 43575U 18061G   24316.92451868 -.00000020  00000+0 -14081-4 0  9990
2 43575  86.3921 300.0410 0002281  92.6544 267.4913 14.34214716329926
IRIDIUM 156             
1 43576U 18061H   24317.38752777  .00000533  00000+0  18313-3 0  9993
2 43576  86.3925 299.8538 0002455  81.1662 278.9811 14.34219571329977
IRIDIUM 164             
1 43577U 18061J   24316.81035111  .00000542  00000+0  18658-3 0  9999
2 43577  86.3926 300.1265 0002090  84.9359 275.2076 14.34219911329949
IRIDIUM 159             
1 43578U 18061K   24316.70886921  .00000512  00000+0  17563-3 0  9992
2 43578  86.3925 300.1178 0002138  89.2548 270.8893 14.34216962329898
IRIDIUM 180             
1 43922U 19002A   24317.33627504  .00000879  00000+0  30692-3 0  9995
2 43922  86.4042 236.7019 0002090  73.4784 286.6641 14.34211255305636
IRIDIUM 176             
1 43923U 19002B   24317.49135008  .00003435  00000+0  54096-3 0  9991
2 43923  86.6119 236.6468 0002452  95.3095 264.8402 14.72236528313668
IRIDIUM 168             
1 43924U 19002C   24317.19040124  .00000135  00000+0  41261-4 0  9998
2 43924  86.3988 236.8237 0002192  84.0539 276.0906 14.34216494305556
IRIDIUM 173             
1 43925U 19002D   24317.31725776  .00000936  00000+0  32701-3 0  9993
2 43925  86.3988 236.6843 0002293  81.6966 278.4489 14.34212759305560
IRIDIUM 169             
1 43926U 19002E   24317.48778275  .00001241  00000+0  39926-3 0  9990
2 43926  86.4198 268.2405 0004170  88.1327 272.0349 14.38596614306597
IRIDIUM 172             
1 43927U 19002F   24316.75276640  .00001013  00000+0  35462-3 0  9997
2 43927  86.3988 236.9254 0002189  84.2448 275.8998 14.34218214305488
IRIDIUM 175             
1 43928U 19002G   24316.73830557  .00003773  00000+0  59435-3 0  9990
2 43928  86.1556 201.8193 0003202  67.6918 292.4638 14.72240700313544
IRIDIUM 171             
1 43929U 19002H   24316.73372448  .00000251  00000+0  82570-4 0  9996
2 43929  86.4001 237.1753 0002060  73.8938 286.2485 14.34208773305475
IRIDIUM 170             
1 43930U 19002J   24316.74992402  .00004287  00000+0  67588-3 0  9991
2 43930  86.6118 236.9619 0002271  83.9607 276.1869 14.72239596313567
IRIDIUM 167             
1 43931U 19002K   24317.21577197  .00000974  00000+0  34071-3 0  9995
2 43931  86.3990 236.7496 0002414  73.5857 286.5604 14.34220903305546
IRIDIUM 181             
1 56726U 23068S   24317.44461371  .00000788  00000+0  22683-3 0  9998
2 56726  86.8585 297.6051 0002179  78.9217 281.2230 14.43600259 78525
IRIDIUM 177             
1 56727U 23068T   24317.20510491  .00006293  00000+0  82420-3 0  9993
2 56727  86.1977 245.0509 0002900  77.4911 282.6634 14.80235276 80278
IRIDIUM 174             
1 56728U 23068U   24316.72642977  .00005602  00000+0  73421-3 0  9999
2 56728  86.1980 245.3933 0002416  86.8848 273.2650 14.80191638 80202
IRIDIUM 178             
1 56729U 23068V   24316.85629833  .00005130  00000+0  67112-3 0  9996
2 56729  86.5743 269.7935 0003189  75.7755 284.3820 14.80255067 80229
IRIDIUM 179             
1 56730U 23068W   24316.44514043  .00005644  00000+0  73871-3 0  9998
2 56730  86.6750 275.9619 0002821  80.4774 279.6766 14.80251690 80161
